CCSDS_OMM_VERS = 2.0
CREATION_DATE  = 
ORIGINATOR     = 

OBJECT_NAME    = ISS OBJECT XX
OBJECT_ID      = 1998-067XX
CENTER_NAME    = EARTH
REF_FRAME      = TEME
TIME_SYSTEM    = UTC
MEAN_ELEMENT_THEORY = SGP/SGP4

EPOCH          = 2026-03-07T10:07:44.428800
MEAN_MOTION    = 15.74068362
ECCENTRICITY   = .00069652
INCLINATION    = 51.6213
RA_OF_ASC_NODE = 75.7321
ARG_OF_PERICENTER = 69.2651
MEAN_ANOMALY   = 290.9094

EPHEMERIS_TYPE = 0
CLASSIFICATION_TYPE = U
NORAD_CAT_ID   = 66911
ELEMENT_SET_NO = 999
REV_AT_EPOCH   = 1483
BSTAR          = .19880489E-2
MEAN_MOTION_DOT = .300355E-2
MEAN_MOTION_DDOT = 0

CCSDS_OMM_VERS = 2.0
CREATION_DATE  = 
ORIGINATOR     = 

OBJECT_NAME    = ISS OBJECT XY
OBJECT_ID      = 1998-067XY
CENTER_NAME    = EARTH
REF_FRAME      = TEME
TIME_SYSTEM    = UTC
MEAN_ELEMENT_THEORY = SGP/SGP4

EPOCH          = 2026-03-07T09:48:03.033216
MEAN_MOTION    = 15.63183270
ECCENTRICITY   = .00031072
INCLINATION    = 51.6266
RA_OF_ASC_NODE = 78.6712
ARG_OF_PERICENTER = 76.3903
MEAN_ANOMALY   = 283.7437

EPHEMERIS_TYPE = 0
CLASSIFICATION_TYPE = U
NORAD_CAT_ID   = 66912
ELEMENT_SET_NO = 999
REV_AT_EPOCH   = 1479
BSTAR          = .124185E-2
MEAN_MOTION_DOT = .116951E-2
MEAN_MOTION_DDOT = 0

CCSDS_OMM_VERS = 2.0
CREATION_DATE  = 
ORIGINATOR     = 

OBJECT_NAME    = ISS OBJECT XZ
OBJECT_ID      = 1998-067XZ
CENTER_NAME    = EARTH
REF_FRAME      = TEME
TIME_SYSTEM    = UTC
MEAN_ELEMENT_THEORY = SGP/SGP4

EPOCH          = 2026-03-07T08:16:26.908032
MEAN_MOTION    = 15.51606883
ECCENTRICITY   = .00094625
INCLINATION    = 51.6303
RA_OF_ASC_NODE = 83.4992
ARG_OF_PERICENTER = 177.7480
MEAN_ANOMALY   = 182.3554

EPHEMERIS_TYPE = 0
CLASSIFICATION_TYPE = U
NORAD_CAT_ID   = 67683
ELEMENT_SET_NO = 999
REV_AT_EPOCH   = 442
BSTAR          = .8504496E-3
MEAN_MOTION_DOT = .51344E-3
MEAN_MOTION_DDOT = 0

CCSDS_OMM_VERS = 2.0
CREATION_DATE  = 
ORIGINATOR     = 

OBJECT_NAME    = GXIBA-1
OBJECT_ID      = 1998-067YA
CENTER_NAME    = EARTH
REF_FRAME      = TEME
TIME_SYSTEM    = UTC
MEAN_ELEMENT_THEORY = SGP/SGP4

EPOCH          = 2026-03-07T01:31:56.356608
MEAN_MOTION    = 15.53815499
ECCENTRICITY   = .00108926
INCLINATION    = 51.6298
RA_OF_ASC_NODE = 84.6245
ARG_OF_PERICENTER = 167.0714
MEAN_ANOMALY   = 193.0558

EPHEMERIS_TYPE = 0
CLASSIFICATION_TYPE = U
NORAD_CAT_ID   = 67684
ELEMENT_SET_NO = 999
REV_AT_EPOCH   = 438
BSTAR          = .12346692E-2
MEAN_MOTION_DOT = .81342E-3
MEAN_MOTION_DDOT = 0

CCSDS_OMM_VERS = 2.0
CREATION_DATE  = 
ORIGINATOR     = 

OBJECT_NAME    = CORAL
OBJECT_ID      = 1998-067YB
CENTER_NAME    = EARTH
REF_FRAME      = TEME
TIME_SYSTEM    = UTC
MEAN_ELEMENT_THEORY = SGP/SGP4

EPOCH          = 2026-03-07T11:16:16.503744
MEAN_MOTION    = 15.51949529
ECCENTRICITY   = .00113881
INCLINATION    = 51.6305
RA_OF_ASC_NODE = 82.8329
ARG_OF_PERICENTER = 174.8728
MEAN_ANOMALY   = 185.2380

EPHEMERIS_TYPE = 0
CLASSIFICATION_TYPE = U
NORAD_CAT_ID   = 67685
ELEMENT_SET_NO = 999
REV_AT_EPOCH   = 444
BSTAR          = .9374507E-3
MEAN_MOTION_DOT = .57439E-3
MEAN_MOTION_DDOT = 0

CCSDS_OMM_VERS = 2.0
CREATION_DATE  = 
ORIGINATOR     = 

OBJECT_NAME    = ISS OBJECT YC
OBJECT_ID      = 1998-067YC
CENTER_NAME    = EARTH
REF_FRAME      = TEME
TIME_SYSTEM    = UTC
MEAN_ELEMENT_THEORY = SGP/SGP4

EPOCH          = 2026-03-07T06:31:17.520384
MEAN_MOTION    = 15.52411971
ECCENTRICITY   = .0007882
INCLINATION    = 51.6305
RA_OF_ASC_NODE = 83.7633
ARG_OF_PERICENTER = 141.8436
MEAN_ANOMALY   = 218.3113

EPHEMERIS_TYPE = 0
CLASSIFICATION_TYPE = U
NORAD_CAT_ID   = 67686
ELEMENT_SET_NO = 999
REV_AT_EPOCH   = 441
BSTAR          = .1142E-2
MEAN_MOTION_DOT = .71287E-3
MEAN_MOTION_DDOT = 0

CCSDS_OMM_VERS = 2.0
CREATION_DATE  = 
ORIGINATOR     = 

OBJECT_NAME    = LEOPARD
OBJECT_ID      = 1998-067YD
CENTER_NAME    = EARTH
REF_FRAME      = TEME
TIME_SYSTEM    = UTC
MEAN_ELEMENT_THEORY = SGP/SGP4

EPOCH          = 2026-03-07T11:18:55.630080
MEAN_MOTION    = 15.51785936
ECCENTRICITY   = .00078046
INCLINATION    = 51.6311
RA_OF_ASC_NODE = 82.8468
ARG_OF_PERICENTER = 146.5484
MEAN_ANOMALY   = 213.6000

EPHEMERIS_TYPE = 0
CLASSIFICATION_TYPE = U
NORAD_CAT_ID   = 67687
ELEMENT_SET_NO = 999
REV_AT_EPOCH   = 436
BSTAR          = .89855352E-3
MEAN_MOTION_DOT = .54618E-3
MEAN_MOTION_DDOT = 0

CCSDS_OMM_VERS = 2.0
CREATION_DATE  = 
ORIGINATOR     = 

OBJECT_NAME    = ISS OBJECT YE
OBJECT_ID      = 1998-067YE
CENTER_NAME    = EARTH
REF_FRAME      = TEME
TIME_SYSTEM    = UTC
MEAN_ELEMENT_THEORY = SGP/SGP4

EPOCH          = 2026-03-07T05:01:38.352288
MEAN_MOTION    = 15.52177677
ECCENTRICITY   = .0007791
INCLINATION    = 51.6306
RA_OF_ASC_NODE = 84.0971
ARG_OF_PERICENTER = 142.0067
MEAN_ANOMALY   = 218.1474

EPHEMERIS_TYPE = 0
CLASSIFICATION_TYPE = U
NORAD_CAT_ID   = 67688
ELEMENT_SET_NO = 999
REV_AT_EPOCH   = 432
BSTAR          = .10314E-2
MEAN_MOTION_DOT = .63728E-3
MEAN_MOTION_DDOT = 0

CCSDS_OMM_VERS = 2.0
CREATION_DATE  = 
ORIGINATOR     = 

OBJECT_NAME    = CREW DRAGON 12
OBJECT_ID      = 2026-031A
CENTER_NAME    = EARTH
REF_FRAME      = TEME
TIME_SYSTEM    = UTC
MEAN_ELEMENT_THEORY = SGP/SGP4

EPOCH          = 2026-03-07T12:18:20.403360
MEAN_MOTION    = 15.48507964
ECCENTRICITY   = .00081324
INCLINATION    = 51.6318
RA_OF_ASC_NODE = 83.1189
ARG_OF_PERICENTER = 167.0679
MEAN_ANOMALY   = 193.0520

EPHEMERIS_TYPE = 0
CLASSIFICATION_TYPE = U
NORAD_CAT_ID   = 67796
ELEMENT_SET_NO = 999
REV_AT_EPOCH   = 55588
BSTAR          = .27601504E-3
MEAN_MOTION_DOT = .14539E-3
MEAN_MOTION_DDOT = 0

