ISS OBJECT XX           
1 66911U 98067XX  26066.42204200  .00300355  00000+0  19880-2 0  9990
2 66911  51.6213  75.7321 0006965  69.2651 290.9094 15.74068362 14834
ISS OBJECT XY           
1 66912U 98067XY  26066.40836844  .00116951  00000+0  12419-2 0  9992
2 66912  51.6266  78.6712 0003107  76.3903 283.7437 15.63183270 14793
ISS OBJECT XZ           
1 67683U 98067XZ  26066.34475588  .00051344  00000+0  85045-3 0  9995
2 67683  51.6303  83.4992 0009462 177.7480 182.3554 15.51606883  4421
GXIBA-1                 
1 67684U 98067YA  26066.06384672  .00081342  00000+0  12347-2 0  9993
2 67684  51.6298  84.6245 0010892 167.0714 193.0558 15.53815499  4385
CORAL                   
1 67685U 98067YB  26066.46963546  .00057439  00000+0  93745-3 0  9993
2 67685  51.6305  82.8329 0011388 174.8728 185.2380 15.51949529  4443
ISS OBJECT YC           
1 67686U 98067YC  26066.27173056  .00071287  00000+0  11420-2 0  9998
2 67686  51.6305  83.7633 0007882 141.8436 218.3113 15.52411971  4411
LEOPARD                 
1 67687U 98067YD  26066.47147720  .00054618  00000+0  89855-3 0  9997
2 67687  51.6311  82.8468 0007804 146.5484 213.6000 15.51785936  4365
ISS OBJECT YE           
1 67688U 98067YE  26066.20947167  .00063728  00000+0  10314-2 0  9997
2 67688  51.6306  84.0971 0007791 142.0067 218.1474 15.52177677  4325
CREW DRAGON 12          
1 67796U 26031A   26066.51273615  .00014539  00000+0  27602-3 0  9998
2 67796  51.6318  83.1189 0008132 167.0679 193.0520 15.48507964555881
